#dP2024 12 26  0  0  0.00000000      96 __u+U IGS20 FIT  IAC
## 2346 345600.00000000   900.00000000 60670 0.0000000000000
+  131   C01C02C03C04C05C06C07C08C09C10C11C12C13C14C16C19C20
+        C21C22C23C24C25C26C27C28C29C30C32C33C34C35C36C37C38
+        C39C40C41C42C43C44C45C59C60C62E02E03E04E05E06E07E08
+        E09E10E11E12E13E14E15E18E19E21E24E25E26E27E29E30E31
+        E33E34E36G02G03G04G05G06G07G08G09G10G11G12G13G14G15
+        G16G17G18G19G20G21G22G23G24G25G26G27G28G29G30G31G32
+        J02J03J04J07R01R02R03R04R05R06R07R08R09R10R11R12R13
+        R14R15R16R17R18R19R20R21R22R23R24R26  0  0  0  0  0
++        17 20 16 19 16  9  9  9  9  9  9  9  9 11  9  7  7
++         7  7  7  7  7  7  7  7  7  7  7  7  7  7  7  7  8
++         7  8  7  7  7  7  7 17 17 17  4  4  4  4  4  4  4
++         4  4  4  4  4  5  4  4  4  4  4  4  4  4  4  4  4
++         4  4  4  4  4  4  3  4  4  4  4  4  4  3  4  4  4
++         4  3  4  3  4  3  4  4  3  3  4  4  3  4  4  3  3
++         9 10 10 16  7  6  6  6  6 13  5  6  6 14  6  6 14
++         6  6  6  6  6  8  7  6  8 14  6  8  0  0  0  0  0
%c M  cc GPS ccc cccc cccc cccc cccc ccccc ccccc ccccc ccccc
%c cc cc ccc ccc cccc cccc cccc cccc ccccc ccccc ccccc ccccc
%f  0.0000000  0.000000000  0.00000000000  0.000000000000000
%f  0.0000000  0.000000000  0.00000000000  0.000000000000000
%i    0    0    0    0      0      0      0      0         0
%i    0    0    0    0      0      0      0      0         0
/* INFORMATION & ANALYSIS CENTER (IAC)            RAPID DATA
/* S/V CLOCKS ARE ALIGNED TO GNSS TIME                      
/* G:C1WC2W R:C1PC2P E:C1XC5X C:C2IC6I J:C1CC2S             
/* PCV:IGS20_2317 OL/AL:FES2004  NONE     YN ORB:CoN CLK:CoN
*  2024 12 26  0  0  0.00000000
PC01 -34308.182119  24484.565475    368.986935   -361.014183
PC02   4451.863434  41906.977045   2212.886839    709.095290
PC03 -14836.902831  39488.310537    901.557108    777.093438
PC04 -39589.093523  14394.889242   -152.920793   -549.210931
PC05  21917.024619  36038.105385   1637.445699    157.194736
PC06  -3167.958771  37461.233289  19474.375158    589.609943
PC07 -11540.632392  26417.651418 -30681.666092    -93.523569
PC08 -18525.849779  34515.135476  15293.249020    265.829982
PC09   1251.754086  40744.067409  12550.528469   -837.100892
PC10  -3314.536811  27482.566467 -31447.970454   -356.451218
PC11  -4941.787344  16446.379915 -21920.026307    306.614935
PC12 -18960.623142   -303.175556 -20425.412364   -228.579798
PC13 -13289.285294  34979.251804  19330.438652     74.735236
PC14 -15575.984268  15730.031640  17032.269853   -584.024342
PC16  -4534.891293  36301.768639  21606.884580     -5.377822
PC19   5528.943430 -16427.950298 -21843.495134   -966.175519
PC20  21983.954798 -13107.162384 -11081.383324   -884.270465
PC21 -26810.008592   1373.493515  -7651.921444   -907.471376
PC22 -15246.393582 -10594.302204 -20846.492748    215.242222
PC23   7781.490668  20013.952112 -17824.240696   -929.266637
PC24 -15721.991490  18202.788259  14102.199567    718.064739
PC25  -4984.182646  27314.638997  -2692.891132    598.600129
PC26 -16544.908133   -670.676264  22434.662161   -396.454743
PC27  22333.782730   8599.087153  14344.693090    414.702319
PC28  19421.680868  20040.508548    114.929064    323.983139
PC29  -3530.063602 -21038.309911  17988.049324    380.333293
PC30  14367.347368  -8268.418648  22445.593118     62.769188
PC32  26751.108590  -1477.494893   7799.826767   -854.220920
PC33  -5551.569427  16512.744118  21804.587190   -947.111147
PC34 -12938.530614   9926.001371 -22653.557709    593.462459
PC35 -19776.928752 -19648.190729    657.277286    171.534445
PC36   5362.822485 -27229.077929   3025.120013    242.906749
PC37  16465.926929   1412.161192 -22489.993841   -898.664740
PC38 -22086.489139  35122.203607   7130.981942    199.154036
PC39  -6972.705307  32402.134607  26254.909833    -10.643970
PC40 -15879.099751  20031.911387 -33570.687016   -110.625907
PC41  14277.917784  11127.450773  21286.452105   -883.698199
PC42 -23203.392137  12392.659925   9400.347664   -548.656375
PC43   2581.939887  20777.654448 -18468.690584     96.391360
PC44 -22742.975876  -7706.713250 -14203.804842    692.084423
PC45  -7191.892318 -20494.621021  17523.642241   -195.599901
PC59 -32333.850219  27022.714850   1444.043230     -0.557106
PC60   7320.740340  41506.324507   1255.452947      0.688014
PC62 -39613.071256  14409.318063   -699.932671      0.274833
PE02 -20049.137973  -3140.926420  21530.699161    185.107783
PE03 -27336.111478 -11317.308131  -1051.651343   -162.339168
PE04  24198.010930  -3152.783694 -16751.833349   -116.066748
PE05 -14323.734800 -18798.133014 -17822.478684   4813.450203
PE06  16796.684800 -10229.746759 -22141.162398    -62.859753
PE07  -7458.829890  15209.395519  24273.574385   -160.139390
PE08 -24581.231104   2502.193022  16299.953278   -389.904622
PE09   7470.613470 -15051.487408 -24371.153170   -713.740998
PE10  10401.962511 -18746.091778  20415.203958   -678.882776
PE11   4310.708679 -26395.935601  12667.612786     52.628266
PE12  14362.774701  -9397.935405  24118.121318  -1356.919956
PE13  -4607.573906  26103.638879 -13169.747660    -28.357891
PE14  10026.846994  18033.378773 -15984.383849    512.668236
PE15 -14509.883818   8569.381166 -24321.446169   -147.188049
PE18 -26147.236884 -15778.687886   6633.175027    925.305713
PE19  26702.159519  12485.311380   2729.427190   1138.639889
PE21   3575.255292  17852.431812 -23343.836008   -636.301844
PE24  15612.321021 -22458.849240  11327.367817  -1175.735412
PE25  -3092.086555 -18114.678986  23205.222737     12.620437
PE26   8112.687488  27859.262894   5866.725502   -172.715492
PE27 -15508.975379  22482.379131 -11396.585953   -539.283234
PE29  14615.552030  18897.023595  17479.970858    -56.696413
PE30 -25218.153303  13819.947324   6962.330259  -1067.545973
PE31  25207.965773 -13796.105920  -7121.534452    -48.027813
PE33  15647.928059  14129.577566  20787.291179     16.406141
PE34 -15747.202574 -13698.219812 -20986.462741   -153.846034
PE36  -7749.240526 -28047.262863  -5391.507483   -330.016284
PG02  15872.773128    -10.544369  21812.864402   -283.380778
PG03  21696.311721 -10508.606698  10854.754426    632.756103
PG04  23551.181108  -1105.457455 -12363.287703    501.764428
PG05 -16650.568074  -2909.120976 -20679.255470   -197.105211
PG06  -5430.567688 -25929.037867    458.966514    -71.569911
PG07   8807.582693 -17118.468369 -17566.123884    -14.539461
PG08  26139.489929   5834.038262   1117.528902    446.896425
PG09  17372.220000  -8580.918209 -18292.162600    502.435862
PG10  -5126.983317  20001.685773  16739.702254   -249.494603
PG11 -12139.342087 -20571.392325 -11636.538924   -752.698457
PG12 -22050.179884   6417.330866  13016.836748   -560.599895
PG13 -22073.944940 -14123.466540  -5289.797199    691.273320
PG14   8749.595584 -21084.207171  13423.210454    567.455006
PG15 -26458.278795  -2685.134281   1009.258085    243.956234
PG16  13018.945826   9045.862664 -21717.122315    -94.049608
PG17   1282.153274 -15596.806917  21848.865924    503.348380
PG18  -7358.775593  19198.491367 -16654.680599   -659.700198
PG19 -10318.213021 -17292.666787  17397.236292    578.317976
PG20  -8379.658987 -13716.671314 -21079.666679    367.592626
PG21  17111.320480   7900.920840  19500.925116     98.338685
PG22   2220.073731 -18824.387005  19115.481762    -88.629348
PG23 -16282.507829  20375.511772   4347.467039    390.933427
PG24 -16646.201614  -2374.779571  20172.832889   -470.309782
PG25 -19721.430511  17405.879259   2056.253439    497.655470
PG26   4481.762777  17210.850578 -19799.879039    -22.714120
PG27  21562.308057  13009.961802  -9413.441935    -33.827551
PG28   5246.473746  25912.507920   2522.372387   -518.316332
PG29 -17708.423321   6970.139380 -18623.302826   -552.816277
PG30    719.022325 -24821.677004  -8890.558885   -253.406165
PG31  10519.058715  23031.606530  -7616.742748   -219.252649
PG32   4346.749545  16268.955467  20815.087416   -552.998361
PJ02 -36458.316131  19852.139800  -2869.712951     -0.163082
PJ03 -18294.768747  28010.107643 -21071.319826    -10.098537
PJ04 -28268.262479  28765.828938  18374.198202     21.316894
PJ07 -25359.735794  33678.580485    -13.474429     -0.019856
PR01   9681.745722 -10870.655105 -20942.871343    109.022817
PR02  -8821.872060  -9639.879621 -21846.027475    -38.903775
PR03 -23152.027669  -3174.858140 -10099.433818    113.888660
PR04 -24211.936905   4422.686209   6688.213696    269.986160
PR05 -12468.238693   9842.593000  19958.952056    142.762994
PR06  10875.344547   9003.913250  21239.078345 999999.999999
PR07  23364.132068   3084.015255   9874.293956     97.633031
PR08  24134.602034  -4740.950541  -6781.902082     -6.170105
PR09    289.885203  19447.600582 -16536.717470    228.341642
PR10   9159.553905   6439.938072 -22931.124129 999999.999999
PR11  14647.596860 -11330.496921 -17528.354436      3.171177
PR12  10974.153766 -23033.133652    343.719666     48.854125
PR13   1879.992001 -20703.545157  14766.139998 999999.999999
PR14 -10172.035221  -4590.850034  22941.818069     27.488933
PR15 -14920.138182  12817.995787  16255.563890     72.829172
PR16 -11000.335724  23034.362758   -147.504419     31.942157
PR17 -16652.890377 -14546.623765 -12739.219685    151.738110
PR18 -12134.123438    -58.010307 -22406.788855    178.670489
PR19  -3411.161626  13140.101990 -21587.354194   -303.227795
PR20  10598.314252  22564.833622  -5485.167626   -123.766549
PR21  16455.062614  15508.465276  11787.457383   -162.649393
PR22  11908.517862  -1096.785414  22563.660396    -52.755251
PR23   1317.527428 -15191.707124  20446.520196 999999.999999
PR24 -11824.559257 -22053.327226   5016.707363    -85.540883
PR26  24666.608177  -4091.544595  -4984.524554   -132.423740
EOF
